{
    "links": {
        "self": "http://www.neowsapp.com/rest/v1/neo/54016396?api_key=iIulBulltgU6a56xZRHN4H3l9WmuAYTsLGpBGhQ2"
    },
    "id": "54016396",
    "neo_reference_id": "54016396",
    "name": "(2020 FW5)",
    "designation": "2020 FW5",
    "nasa_jpl_url": "http://ssd.jpl.nasa.gov/sbdb.cgi?sstr=54016396",
    "absolute_magnitude_h": 25.689,
    "estimated_diameter": {
        "kilometers": {
            "estimated_diameter_min": 0.0193532977,
            "estimated_diameter_max": 0.0432752892
        },
        "meters": {
            "estimated_diameter_min": 19.3532976757,
            "estimated_diameter_max": 43.2752891916
        },
        "miles": {
            "estimated_diameter_min": 0.0120255779,
            "estimated_diameter_max": 0.0268900097
        },
        "feet": {
            "estimated_diameter_min": 63.4950731462,
            "estimated_diameter_max": 141.9792997913
        }
    },
    "is_potentially_hazardous_asteroid": false,
    "close_approach_data": [
        {
            "close_approach_date": "2018-03-25",
            "close_approach_date_full": "2018-Mar-25 17:22",
            "epoch_date_close_approach": 1521998520000,
            "relative_velocity": {
                "kilometers_per_second": "14.5432168591",
                "kilometers_per_hour": "52355.5806927812",
                "miles_per_hour": "32531.721792134"
            },
            "miss_distance": {
                "astronomical": "0.0592978739",
                "lunar": "23.0668729471",
                "kilometers": "8870835.630968593",
                "miles": "5512081.6624608634"
            },
            "orbiting_body": "Earth"
        },
        {
            "close_approach_date": "2020-03-28",
            "close_approach_date_full": "2020-Mar-28 06:15",
            "epoch_date_close_approach": 1585376100000,
            "relative_velocity": {
                "kilometers_per_second": "13.568217297",
                "kilometers_per_hour": "48845.5822692634",
                "miles_per_hour": "30350.7452716987"
            },
            "miss_distance": {
                "astronomical": "0.023875318",
                "lunar": "9.287498702",
                "kilometers": "3571696.71837266",
                "miles": "2219349.428196308"
            },
            "orbiting_body": "Earth"
        },
        {
            "close_approach_date": "2022-03-30",
            "close_approach_date_full": "2022-Mar-30 07:15",
            "epoch_date_close_approach": 1648624500000,
            "relative_velocity": {
                "kilometers_per_second": "13.1351764393",
                "kilometers_per_hour": "47286.6351815448",
                "miles_per_hour": "29382.0761771104"
            },
            "miss_distance": {
                "astronomical": "0.0229049368",
                "lunar": "8.9100204152",
                "kilometers": "3426529.757764616",
                "miles": "2129146.8616230608"
            },
            "orbiting_body": "Earth"
        }
    ],
    "orbital_data": {
        "orbit_id": "6",
        "orbit_determination_date": "2020-08-22 06:33:16",
        "first_observation_date": "2020-03-25",
        "last_observation_date": "2020-03-29",
        "data_arc_in_days": 4,
        "observations_used": 55,
        "orbit_uncertainty": "8",
        "minimum_orbit_intersection": ".0209092",
        "jupiter_tisserand_invariant": "4.227",
        "epoch_osculation": "2458934.5",
        "eccentricity": ".4321913864640072",
        "semi_major_axis": "1.59120312310471",
        "inclination": "16.33039189474924",
        "ascending_node_longitude": "185.70918734",
        "orbital_period": "733.1399079329615",
        "perihelion_distance": ".9034988391842271",
        "perihelion_argument": "53.12803992667421",
        "aphelion_distance": "2.278907407025193",
        "perihelion_time": "2458976.442475935807",
        "mean_anomaly": "339.4046249924357",
        "mean_motion": ".4910386081900734",
        "equinox": "J2000",
        "orbit_class": {
            "orbit_class_type": "APO",
            "orbit_class_description": "Near-Earth asteroid orbits which cross the Earth’s orbit similar to that of 1862 Apollo",
            "orbit_class_range": "a (semi-major axis) > 1.0 AU; q (perihelion) < 1.017 AU"
        }
    },
    "is_sentry_object": false
}